GPS BIIF-11             
1 41019U 15062A   26062.57900802 -.00000076  00000+0  00000+0 0  9998
2 41019  56.8923  34.8798 0111459 231.4880 127.4967  2.00567070 75719
ELEKTRO-L 2             
1 41105U 15074A   26062.86880331 -.00000128  00000+0  00000+0 0  9991
2 41105   6.4296  71.8188 0003467 237.1165 150.9510  1.00270829 37457
GSAT0209 (GALILEO 12)   
1 41174U 15079A   26061.86713421  .00000015  00000+0  00000+0 0  9990
2 41174  55.7583 104.1775 0004785 323.3337  36.7202  1.70474497 62961
GSAT0208 (GALILEO 11)   
1 41175U 15079B   26062.08735472  .00000015  00000+0  00000+0 0  9996
2 41175  55.7569 104.1685 0004163 323.7694  36.2890  1.70474318 63383
GPS BIIF-12             
1 41328U 16007A   26063.16294155  .00000012  00000+0  00000+0 0  9993
2 41328  55.4554  93.6223 0095428 245.9980 113.0677  2.00556769 73733
GSAT0211 (GALILEO 14)   
1 41549U 16030A   26061.62472216  .00000011  00000+0  00000+0 0  9998
2 41549  55.1322 224.6224 0003631  25.7212 334.2388  1.70473766 60858
GSAT0210 (GALILEO 13)   
1 41550U 16030B   26061.29541970  .00000012  00000+0  00000+0 0  9998
2 41550  55.1304 224.6297 0001173 192.8511 167.0898  1.70473885 60846
INSAT-3DR               
1 41752U 16054A   26063.03636441 -.00000090  00000+0  00000+0 0  9997
2 41752   0.0462  96.8444 0013284 184.8908 327.1218  1.00272377 34767
GSAT0207 (GALILEO 15)   
1 41859U 16069A   26059.22748061  .00000008  00000+0  00000+0 0  9997
2 41859  55.4267 104.1007 0005031 309.1503  50.8842  1.70474383 57546
GSAT0212 (GALILEO 16)   
1 41860U 16069B   26062.01395955  .00000014  00000+0  00000+0 0  9997
2 41860  55.4261 104.0186 0003622 335.7588  24.3106  1.70474657 57847
GSAT0213 (GALILEO 17)   
1 41861U 16069C   26058.27531726  .00000004  00000+0  00000+0 0  9998
2 41861  55.4260 104.1303 0005130 291.6331  68.3872  1.70474834 57644
GSAT0214 (GALILEO 18)   
1 41862U 16069D   26059.00795760  .00000007  00000+0  00000+0 0  9994
2 41862  55.4250 104.1026 0004132 296.1582  63.8775  1.70474701 57785
GOES 16                 
1 41866U 16071A   26063.13624759 -.00000103  00000+0  00000+0 0  9997
2 41866   0.1467  90.1405 0002533 217.9627 158.1288  1.00271707 34051
GSAT-17                 
1 42815U 17040B   26063.03285379 -.00000270  00000+0  00000+0 0  9994
2 42815   0.0414 300.1869 0005074 347.0571 339.8674  1.00270146 31736
GSAT0215 (GALILEO 19)   
1 43055U 17079A   26061.84428198  .00000010  00000+0  00000+0 0  9999
2 43055  55.1089 224.4297 0000612  12.6993 347.2429  1.70474455 51178
GSAT0216 (GALILEO 20)   
1 43056U 17079B   26060.96235113  .00000013  00000+0  00000+0 0  9998
2 43056  55.1088 224.4540 0001688 322.1798  37.7539  1.70474524 51175
GSAT0217 (GALILEO 21)   
1 43057U 17079C   26062.35625513  .00000009  00000+0  00000+0 0  9996
2 43057  55.1084 224.4135 0002106 356.8681   3.0693  1.70474491 51184
